*******************************************************************************
Ephemeris / WWW_USER Sat Mar  9 03:30:06 2019 Pasadena, USA      / Horizons    
*******************************************************************************
Target body name: New Horizons (spacecraft) (-98) {source: NH_merged}
Center body name: Earth (399)                     {source: NH_merged}
Center-site name: Green Bank (GBT)
*******************************************************************************
Start time      : A.D. 2019-Mar-09 12:15:00.0000 UT      
Stop  time      : A.D. 2019-Mar-09 16:15:00.0000 UT      
Step-size       : 1 minutes
*******************************************************************************
Target pole/equ : No model available
Target radii    : (unavailable)                                                
Center geodetic : 280.160200,38.4330940,0.8760930 {E-lon(deg),Lat(deg),Alt(km)}
Center cylindric: 280.160200,5003.37558,3943.7589 {E-lon(deg),Dxy(km),Dz(km)}
Center pole/equ : High-precision EOP model        {East-longitude positive}
Center radii    : 6378.1 x 6378.1 x 6356.8 km     {Equator, meridian, pole}    
Target primary  : Pluto
Vis. interferer : MOON (R_eq= 1737.400) km        {source: NH_merged}
Rel. light bend : Sun, EARTH                      {source: NH_merged}
Rel. lght bnd GM: 1.3271E+11, 3.9860E+05 km^3/s^2                              
Atmos refraction: NO (AIRLESS)
RA format       : HMS
Time format     : CAL 
RTS-only print  : NO       
EOP file        : eop.190308.p190530                                           
EOP coverage    : DATA-BASED 1962-JAN-20 TO 2019-MAR-08. PREDICTS-> 2019-MAY-29
Units conversion: 1 au= 149597870.700 km, c= 299792.458 km/s, 1 day= 86400.0 s 
Table cut-offs 1: Elevation (-90.0deg=NO ),Airmass (>38.000=NO), Daylight (NO )
Table cut-offs 2: Solar elongation (  0.0,180.0=NO ),Local Hour Angle( 0.0=NO )
Table cut-offs 3: RA/DEC angular rate (     0.0=NO )                           
*******************************************************************************************************************
 Date__(UT)__HR:MN     R.A._(ICRF/J2000.0)_DEC dRA*cosD d(DEC)/dt            delta      deldot    S-O-T /r    S-T-O
*******************************************************************************************************************
$$SOE
 2019-Mar-09 15:33 *m  19 14 20.11 -20 23 23.9 1.756667  0.343037 44.2916956137727 -11.8530733  61.1364 /L   1.1345
 2019-Mar-09 15:34 *m  19 14 20.11 -20 23 23.9 1.756726  0.343086 44.2916908602417 -11.8519720  61.1371 /L   1.1345
 2019-Mar-09 15:35 *m  19 14 20.11 -20 23 23.9 1.756786  0.343135 44.2916861071516 -11.8508741  61.1378 /L   1.1345
 2019-Mar-09 15:36 *m  19 14 20.12 -20 23 23.8 1.756846  0.343184 44.2916813545012 -11.8497797  61.1385 /L   1.1345
 2019-Mar-09 15:37 *m  19 14 20.12 -20 23 23.8 1.756907  0.343233 44.2916766022890 -11.8486888  61.1392 /L   1.1345
 2019-Mar-09 15:38 *m  19 14 20.12 -20 23 23.8 1.756969  0.343281 44.2916718505135 -11.8476015  61.1398 /L   1.1345
 2019-Mar-09 15:39 *m  19 14 20.12 -20 23 23.8 1.757031  0.343330 44.2916670991735 -11.8465177  61.1405 /L   1.1345
 2019-Mar-09 15:40 *m  19 14 20.13 -20 23 23.8 1.757094  0.343378 44.2916623482674 -11.8454374  61.1412 /L   1.1346
 2019-Mar-09 15:41 *m  19 14 20.13 -20 23 23.8 1.757158  0.343426 44.2916575977939 -11.8443608  61.1419 /L   1.1346
 2019-Mar-09 15:42 *m  19 14 20.13 -20 23 23.8 1.757222  0.343474 44.2916528477514 -11.8432877  61.1426 /L   1.1346
 2019-Mar-09 15:43 *m  19 14 20.13 -20 23 23.8 1.757287  0.343522 44.2916480981385 -11.8422183  61.1432 /L   1.1346
 2019-Mar-09 15:44 *m  19 14 20.13 -20 23 23.8 1.757352  0.343570 44.2916433489538 -11.8411526  61.1439 /L   1.1346
 2019-Mar-09 15:45 *m  19 14 20.14 -20 23 23.8 1.757419  0.343617 44.2916386001958 -11.8400906  61.1446 /L   1.1346
 2019-Mar-09 15:46 *m  19 14 20.14 -20 23 23.8 1.757485  0.343665 44.2916338518629 -11.8390322  61.1453 /L   1.1346
 2019-Mar-09 15:47 *m  19 14 20.14 -20 23 23.8 1.757553  0.343712 44.2916291039538 -11.8379776  61.1459 /L   1.1346
 2019-Mar-09 15:48 *m  19 14 20.14 -20 23 23.8 1.757621  0.343759 44.2916243564668 -11.8369268  61.1466 /L   1.1346
 2019-Mar-09 15:49 *m  19 14 20.14 -20 23 23.8 1.757690  0.343806 44.2916196094006 -11.8358798  61.1473 /L   1.1346
 2019-Mar-09 15:50 *m  19 14 20.15 -20 23 23.8 1.757759  0.343853 44.2916148627535 -11.8348365  61.1480 /L   1.1346
 2019-Mar-09 15:51 *m  19 14 20.15 -20 23 23.8 1.757829  0.343899 44.2916101165240 -11.8337971  61.1487 /L   1.1346
 2019-Mar-09 15:52 *m  19 14 20.15 -20 23 23.8 1.757900  0.343946 44.2916053707107 -11.8327615  61.1493 /L   1.1346
 2019-Mar-09 15:53 *m  19 14 20.15 -20 23 23.7 1.757971  0.343992 44.2916006253118 -11.8317299  61.1500 /L   1.1346
 2019-Mar-09 15:54 *m  19 14 20.15 -20 23 23.7 1.758043  0.344038 44.2915958803260 -11.8307021  61.1507 /L   1.1347
 2019-Mar-09 15:55 *m  19 14 20.16 -20 23 23.7 1.758115  0.344084 44.2915911357516 -11.8296782  61.1514 /L   1.1347
 2019-Mar-09 15:56 *m  19 14 20.16 -20 23 23.7 1.758189  0.344130 44.2915863915870 -11.8286583  61.1521 /L   1.1347
 2019-Mar-09 15:57 *m  19 14 20.16 -20 23 23.7 1.758262  0.344176 44.2915816478306 -11.8276423  61.1527 /L   1.1347
 2019-Mar-09 15:58 *m  19 14 20.16 -20 23 23.7 1.758337  0.344221 44.2915769044809 -11.8266304  61.1534 /L   1.1347
 2019-Mar-09 15:59 *m  19 14 20.16 -20 23 23.7 1.758412  0.344266 44.2915721615363 -11.8256224  61.1541 /L   1.1347
 2019-Mar-09 16:00 *m  19 14 20.17 -20 23 23.7 1.758487  0.344311 44.2915674189951 -11.8246185  61.1548 /L   1.1347
 2019-Mar-09 16:01 *m  19 14 20.17 -20 23 23.7 1.758564  0.344356 44.2915626768557 -11.8236187  61.1555 /L   1.1347
 2019-Mar-09 16:02 *m  19 14 20.17 -20 23 23.7 1.758641  0.344401 44.2915579351164 -11.8226229  61.1561 /L   1.1347
 2019-Mar-09 16:03 *m  19 14 20.17 -20 23 23.7 1.758718  0.344446 44.2915531937758 -11.8216312  61.1568 /L   1.1347
 2019-Mar-09 16:04 *m  19 14 20.18 -20 23 23.7 1.758796  0.344490 44.2915484528320 -11.8206437  61.1575 /L   1.1347
 2019-Mar-09 16:05 *m  19 14 20.18 -20 23 23.7 1.758875  0.344535 44.2915437122834 -11.8196603  61.1582 /L   1.1347
 2019-Mar-09 16:06 *m  19 14 20.18 -20 23 23.7 1.758954  0.344579 44.2915389721284 -11.8186811  61.1588 /L   1.1347
 2019-Mar-09 16:07 *m  19 14 20.18 -20 23 23.7 1.759034  0.344623 44.2915342323653 -11.8177061  61.1595 /L   1.1347
 2019-Mar-09 16:08 *m  19 14 20.18 -20 23 23.7 1.759114  0.344666 44.2915294929923 -11.8167352  61.1602 /L   1.1348
 2019-Mar-09 16:09 *m  19 14 20.19 -20 23 23.7 1.759195  0.344710 44.2915247540079 -11.8157687  61.1609 /L   1.1348
 2019-Mar-09 16:10 *m  19 14 20.19 -20 23 23.7 1.759277  0.344753 44.2915200154103 -11.8148063  61.1616 /L   1.1348
 2019-Mar-09 16:11 *m  19 14 20.19 -20 23 23.6 1.759359  0.344797 44.2915152771978 -11.8138483  61.1622 /L   1.1348
 2019-Mar-09 16:12 *m  19 14 20.19 -20 23 23.6 1.759442  0.344840 44.2915105393686 -11.8128945  61.1629 /L   1.1348
 2019-Mar-09 16:13 *m  19 14 20.19 -20 23 23.6 1.759526  0.344882 44.2915058019211 -11.8119451  61.1636 /L   1.1348
 2019-Mar-09 16:14 *m  19 14 20.20 -20 23 23.6 1.759610  0.344925 44.2915010648535 -11.8110000  61.1643 /L   1.1348
 2019-Mar-09 16:15 *m  19 14 20.20 -20 23 23.6 1.759694  0.344968 44.2914963281640 -11.8100593  61.1649 /L   1.1348
